NORAD_CAT_ID,OBJECT_NAME,OBJECT_TYPE,EPOCH,MEAN_MOTION,ECCENTRICITY,INCLINATION,RA_OF_ASC_NODE,ARG_OF_PERICENTER,MEAN_ANOMALY,BSTAR,MEAN_MOTION_DOT,MEAN_MOTION_DDOT,TLE_LINE0,TLE_LINE1,TLE_LINE2,SEMIMAJOR_AXIS,PERIOD,APOGEE,PERIGEE,DECAYED
52483.0,STARLINK-3875,PAYLOAD,2023-11-25 00:47:05,15.08846382,0.0001381,53.2161,200.5304,99.7385,260.3764,0.00061972,9.59e-05,0.0,0 STARLINK-3875,1 52483U 22049AJ  23329.03270744  .00009590  00000-0  61972-3 0  9996,2 52483  53.2161 200.5304 0001381  99.7385 260.3764 15.08846382 87479,6917.861,95.437,540.681,538.771,0.0
52483.0,STARLINK-3875,PAYLOAD,2023-11-25 21:27:06,15.08859955,0.0001392,53.2151,196.667,93.9111,266.2041,0.00072303,0.00011244,0.0,0 STARLINK-3875,1 52483U 22049AJ  23329.89382393  .00011244  00000-0  72303-3 0  9993,2 52483  53.2151 196.6670 0001392  93.9111 266.2041 15.08859955 87602,6917.819,95.436,540.647,538.721,0.0
52483.0,STARLINK-3875,PAYLOAD,2023-11-25 23:02:29,15.08866121,0.0001456,53.2158,196.371,87.0596,273.0563,0.0009548,0.00014951,0.0,0 STARLINK-3875,1 52483U 22049AJ  23329.96006261  .00014951  00000-0  95480-3 0  9997,2 52483  53.2158 196.3710 0001456  87.0596 273.0563 15.08866121 86532,6917.801,95.436,540.673,538.658,0.0
52483.0,STARLINK-3875,PAYLOAD,2023-11-26 19:42:30,15.08835037,0.0001105,53.2156,192.5066,92.5369,267.5749,1.3656e-05,-7e-07,0.0,0 STARLINK-3875,1 52483U 22049AJ  23330.82119090 -.00000070  00000-0  13656-4 0  9993,2 52483  53.2156 192.5066 0001105  92.5369 267.5749 15.08835037 86662,6917.896,95.438,540.525,538.996,0.0
52483.0,STARLINK-3875,PAYLOAD,2023-11-26 21:17:53,15.08833594,0.0001175,53.2153,192.2091,108.7578,251.3542,-4.4166e-05,-9.91e-06,0.0,0 STARLINK-3875,1 52483U 22049AJ  23330.88743044 -.00000991  00000-0 -44166-4 0  9994,2 52483  53.2153 192.2091 0001175 108.7578 251.3542 15.08833594 87752,6917.9,95.438,540.578,538.952,0.0
52483.0,STARLINK-3875,PAYLOAD,2023-11-27 00:28:40,15.08832188,0.0001456,53.2152,191.6141,86.2816,273.8342,6.9076e-06,-1.78e-06,0.0,0 STARLINK-3875,1 52483U 22049AJ  23331.01991337 -.00000178  00000-0  69076-5 0  9994,2 52483  53.2152 191.6141 0001456  86.2816 273.8342 15.08832188 87774,6917.904,95.438,540.777,538.762,0.0
52483.0,STARLINK-3875,PAYLOAD,2023-11-27 21:08:41,15.08849463,0.000143,53.2156,187.7461,78.7607,281.3545,0.00064098,9.931e-05,0.0,0 STARLINK-3875,1 52483U 22049AJ  23331.88103236  .00009931  00000-0  64098-3 0  9994,2 52483  53.2156 187.7461 0001430  78.7607 281.3545 15.08849463 87903,6917.851,95.437,540.706,538.727,0.0
52483.0,STARLINK-3875,PAYLOAD,2023-11-28 00:19:27,15.08854061,0.0001449,53.2157,187.1502,74.0866,286.0286,0.00072579,0.00011286,0.0,0 STARLINK-3875,1 52483U 22049AJ  23332.01351106  .00011286  00000-0  72579-3 0  9990,2 52483  53.2157 187.1502 0001449  74.0866 286.0286 15.08854061 86846,6917.837,95.437,540.705,538.7,0.0
52483.0,STARLINK-3875,PAYLOAD,2023-11-28 19:24:04,15.08855257,0.0001314,53.215,183.5787,107.1371,252.9765,0.00039667,6.033e-05,0.0,0 STARLINK-3875,1 52483U 22049AJ  23332.80838556  .00006033  00000-0  39667-3 0  9991,2 52483  53.2150 183.5787 0001314 107.1371 252.9765 15.08855257 86969,6917.834,95.437,540.608,538.79,0.0
52483.0,STARLINK-3875,PAYLOAD,2023-11-28 20:59:27,15.0884944,0.0001457,53.2158,183.2822,93.4468,266.6691,0.00018377,2.639e-05,0.0,0 STARLINK-3875,1 52483U 22049AJ  23332.87462692  .00002639  00000-0  18377-3 0  9995,2 52483  53.2158 183.2822 0001457  93.4468 266.6691 15.08849440 88055,6917.852,95.437,540.724,538.709,0.0
52483.0,STARLINK-3875,PAYLOAD,2023-11-29 00:10:14,15.08847684,0.0001401,53.2159,182.6876,91.223,268.8922,0.00026752,3.973e-05,0.0,0 STARLINK-3875,1 52483U 22049AJ  23333.00710752  .00003973  00000-0  26752-3 0  9992,2 52483  53.2159 182.6876 0001401  91.2230 268.8922 15.08847684 86990,6917.857,95.437,540.691,538.753,0.0
52483.0,STARLINK-3875,PAYLOAD,2023-11-29 19:14:51,15.08843961,0.0001494,53.2163,179.1178,103.551,256.5649,-3.8668e-05,-9.03e-06,0.0,0 STARLINK-3875,1 52483U 22049AJ  23333.80198674 -.00000903  00000-0 -38668-4 0  9995,2 52483  53.2163 179.1178 0001494 103.5510 256.5649 15.08843961 87110,6917.868,95.437,540.767,538.7,0.0
52483.0,STARLINK-3875,PAYLOAD,2023-11-29 20:50:15,15.08832997,0.0001556,53.2164,178.8205,103.9125,256.2041,0.00023761,3.495e-05,0.0,0 STARLINK-3875,1 52483U 22049AJ  23333.86823173  .00003495  00000-0  23761-3 0  9994,2 52483  53.2164 178.8205 0001556 103.9125 256.2041 15.08832997 87124,6917.902,95.438,540.843,538.69,0.0
52483.0,STARLINK-3875,PAYLOAD,2023-11-30 23:51:48,15.08836819,0.0001453,53.2172,173.7671,98.7655,261.3502,2.6263e-05,1.3e-06,0.0,0 STARLINK-3875,1 52483U 22049AJ  23334.99431394  .00000130  00000-0  26263-4 0  9993,2 52483  53.2172 173.7671 0001453  98.7655 261.3502 15.08836819 87293,6917.89,95.438,540.76,538.75,0.0
52483.0,STARLINK-3875,PAYLOAD,2023-12-01 18:56:27,15.08828699,0.0001567,53.2171,170.1995,110.5916,249.5244,3.1975e-05,2.21e-06,0.0,0 STARLINK-3875,1 52483U 22049AJ  23335.78920308  .00000221  00000-0  31975-4 0  9996,2 52483  53.2171 170.1995 0001567 110.5916 249.5244 15.08828699 87413,6917.915,95.438,540.864,538.696,0.0
52483.0,STARLINK-3875,PAYLOAD,2023-12-01 20:31:50,15.08830412,0.0001451,53.2168,169.9019,101.2223,258.8933,4.0635e-05,3.59e-06,0.0,0 STARLINK-3875,1 52483U 22049AJ  23335.85544279  .00000359  00000-0  40635-4 0  9998,2 52483  53.2168 169.9019 0001451 101.2223 258.8933 15.08830412 88507,6917.91,95.438,540.778,538.771,0.0
52483.0,STARLINK-3875,PAYLOAD,2023-12-01 23:42:36,15.08829974,0.0001442,53.2168,169.3074,99.9697,260.1458,3.3175e-05,2.4e-06,0.0,0 STARLINK-3875,1 52483U 22049AJ  23335.98792412  .00000240  00000-0  33175-4 0  9996,2 52483  53.2168 169.3074 0001442  99.9697 260.1458 15.08829974 88521,6917.911,95.438,540.774,538.778,0.0
52483.0,STARLINK-3875,PAYLOAD,2023-12-02 17:11:50,15.08841379,0.0001307,53.2159,166.0364,95.3495,264.7646,0.0001212,1.642e-05,0.0,0 STARLINK-3875,1 52483U 22049AJ  23336.71655626  .00001642  00000-0  12120-3 0  9996,2 52483  53.2159 166.0364 0001307  95.3495 264.7646 15.08841379 87557,6917.876,95.437,540.645,538.837,0.0
52483.0,STARLINK-3875,PAYLOAD,2023-12-03 20:13:23,15.0884297,0.0001218,53.2156,160.9845,114.6648,245.4471,0.00011771,1.586e-05,0.0,0 STARLINK-3875,1 52483U 22049AJ  23337.84263641  .00001586  00000-0  11771-3 0  9991,2 52483  53.2156 160.9845 0001218 114.6648 245.4471 15.08842970 87726,6917.871,95.437,540.579,538.894,0.0
52483.0,STARLINK-3875,PAYLOAD,2023-12-03 21:48:46,15.08842948,0.00012,53.2155,160.6868,112.1945,247.9174,0.00011745,1.582e-05,0.0,0 STARLINK-3875,1 52483U 22049AJ  23337.90887601  .00001582  00000-0  11745-3 0  9993,2 52483  53.2155 160.6868 0001200 112.1945 247.9174 15.08842948 88814,6917.871,95.437,540.567,538.906,0.0
52483.0,STARLINK-3875,PAYLOAD,2023-12-05 21:30:21,15.08838886,0.00013,53.216,151.7629,92.3032,267.8109,3.7127e-05,3.03e-06,0.0,0 STARLINK-3875,1 52483U 22049AJ  23339.89608095  .00000303  00000-0  37127-4 0  9994,2 52483  53.2160 151.7629 0001300  92.3032 267.8109 15.08838886 89112,6917.884,95.438,540.648,538.849,0.0
52483.0,STARLINK-3875,PAYLOAD,2023-12-05 23:05:44,15.0883739,0.0001328,53.2161,151.4645,88.7905,271.3239,1.3471e-05,-7.4e-07,0.0,0 STARLINK-3875,1 52483U 22049AJ  23339.96232216 -.00000074  00000-0  13471-4 0  9992,2 52483  53.2161 151.4645 0001328  88.7905 271.3239 15.08837390 88040,6917.888,95.438,540.672,538.835,0.0
52483.0,STARLINK-3875,PAYLOAD,2023-12-06 11:48:50,15.08818692,0.0001378,53.2159,149.0873,86.4448,273.6702,6.9452e-05,8.17e-06,0.0,0 STARLINK-3875,1 52483U 22049AJ  23340.49224648  .00000817  00000-0  69452-4 0  9996,2 52483  53.2159 149.0873 0001378  86.4448 273.6702 15.08818692 88128,6917.946,95.439,540.764,538.857,0.0
52483.0,STARLINK-3875,PAYLOAD,2023-12-06 13:24:13,15.08819495,0.0001382,53.2159,148.7899,86.7845,273.3305,7.6267e-05,9.25e-06,0.0,0 STARLINK-3875,1 52483U 22049AJ  23340.55848634  .00000925  00000-0  76267-4 0  9992,2 52483  53.2159 148.7899 0001382  86.7845 273.3305 15.08819495 89210,6917.943,95.439,540.764,538.852,0.0
52483.0,STARLINK-3875,PAYLOAD,2023-12-06 21:21:09,15.08821887,0.0001383,53.2161,147.3029,88.6866,271.4284,8.9978e-05,1.144e-05,0.0,0 STARLINK-3875,1 52483U 22049AJ  23340.88968873  .00001144  00000-0  89978-4 0  9993,2 52483  53.2161 147.3029 0001383  88.6866 271.4284 15.08821887 89266,6917.936,95.439,540.758,538.844,0.0
52483.0,STARLINK-3875,PAYLOAD,2023-12-07 13:15:01,15.08819834,0.000138,53.2162,144.3293,89.1826,270.9325,5.9394e-05,6.57e-06,0.0,0 STARLINK-3875,1 52483U 22049AJ  23341.55209938  .00000657  00000-0  59394-4 0  9995,2 52483  53.2162 144.3293 0001380  89.1826 270.9325 15.08819834 89366,6917.942,95.439,540.762,538.852,0.0
52483.0,STARLINK-3875,PAYLOAD,2023-12-07 19:36:34,15.08821417,0.0001374,53.2161,143.1397,88.5451,271.5698,6.6783e-05,7.75e-06,0.0,0 STARLINK-3875,1 52483U 22049AJ  23341.81706147  .00000775  00000-0  66783-4 0  9999,2 52483  53.2161 143.1397 0001374  88.5451 271.5698 15.08821417 88322,6917.937,95.439,540.753,538.852,0.0
52483.0,STARLINK-3875,PAYLOAD,2023-12-08 01:58:06,15.0882983,0.0001361,53.2162,141.9504,86.7185,273.3963,0.00013356,1.838e-05,0.0,0 STARLINK-3875,1 52483U 22049AJ  23342.08201705  .00001838  00000-0  13356-3 0  9997,2 52483  53.2162 141.9504 0001361  86.7185 273.3963 15.08829830 88365,6917.911,95.438,540.718,538.835,0.0
52483.0,STARLINK-3875,PAYLOAD,2023-12-08 13:05:48,15.08835863,0.0001357,53.2163,139.8688,86.9199,273.1948,0.00015111,2.118e-05,0.0,0 STARLINK-3875,1 52483U 22049AJ  23342.54569613  .00002118  00000-0  15111-3 0  9996,2 52483  53.2163 139.8688 0001357  86.9199 273.1948 15.08835863 89519,6917.893,95.438,540.697,538.819,0.0
52483.0,STARLINK-3875,PAYLOAD,2023-12-08 21:02:43,15.08840203,0.0001359,53.2163,138.382,86.3836,273.7312,0.00017887,2.56e-05,0.0,0 STARLINK-3875,1 52483U 22049AJ  23342.87689465  .00002560  00000-0  17887-3 0  9993,2 52483  53.2163 138.3820 0001359  86.3836 273.7312 15.08840203 89565,6917.88,95.438,540.685,538.805,0.0
